{
  "type": "FeatureCollection",
  "features": [
    {
      "type": "Feature",
      "properties": {
        "norad_id": 30143,
        "name": "FENGYUN 1C DEB",
        "group": "fengyun-1c-debris",
        "lat": -32.60308860150914,
        "lon": -25.661495749639602,
        "alt_km": 912.6418407166475,
        "timestamp": "2025-12-02T06:27:53.287827+00:00",
        "meta_object_name": "FENGYUN 1C DEB",
        "meta_object_id": "1999-025SY",
        "meta_epoch": "2025-12-01T19:13:29.053344",
        "meta_mean_motion": 14.0251498,
        "meta_eccentricity": 0.010402,
        "meta_inclination": 98.7341,
        "meta_ra_of_asc_node": 159.5321,
        "meta_arg_of_pericenter": 321.3468,
        "meta_mean_anomaly": 49.3809,
        "meta_ephemeris_type": 0,
        "meta_classification_type": "U",
        "meta_norad_cat_id": 30143,
        "meta_element_set_no": 999,
        "meta_rev_at_epoch": 96066,
        "meta_bstar": 0.0013631,
        "meta_mean_motion_dot": 2.158e-05,
        "meta_mean_motion_ddot": 0,
        "tle_line1": "1 30143U 99025SY  25335.80103071  .00002158  00000+0  13631-2 0  9995",
        "tle_line2": "2 30143  98.7341 159.5321 0104020 321.3468  49.3809 14.02514980960669"
      },
      "geometry": {
        "type": "Point",
        "coordinates": [
          -25.661495749639602,
          -32.60308860150914
        ]
      }
    },
    {
      "type": "Feature",
      "properties": {
        "norad_id": 30144,
        "name": "FENGYUN 1C DEB",
        "group": "fengyun-1c-debris",
        "lat": -52.0789766906562,
        "lon": -18.903244736480858,
        "alt_km": 839.2886547702037,
        "timestamp": "2025-12-02T06:27:53.287837+00:00",
        "meta_object_name": "FENGYUN 1C DEB",
        "meta_object_id": "1999-025SZ",
        "meta_epoch": "2025-12-01T17:48:46.156032",
        "meta_mean_motion": 13.91790693,
        "meta_eccentricity": 0.0126101,
        "meta_inclination": 99.0095,
        "meta_ra_of_asc_node": 328.8345,
        "meta_arg_of_pericenter": 320.9473,
        "meta_mean_anomaly": 226.5278,
        "meta_ephemeris_type": 0,
        "meta_classification_type": "U",
        "meta_norad_cat_id": 30144,
        "meta_element_set_no": 999,
        "meta_rev_at_epoch": 95687,
        "meta_bstar": 0.00067102,
        "meta_mean_motion_dot": 8.67e-06,
        "meta_mean_motion_ddot": 0,
        "tle_line1": "1 30144U 99025SZ  25335.74220088  .00000867  00000+0  67102-3 0  9995",
        "tle_line2": "2 30144  99.0095 328.8345 0126101 320.9473 226.5278 13.91790693956873"
      },
      "geometry": {
        "type": "Point",
        "coordinates": [
          -18.903244736480858,
          -52.0789766906562
        ]
      }
    },
    {
      "type": "Feature",
      "properties": {
        "norad_id": 30145,
        "name": "FENGYUN 1C DEB",
        "group": "fengyun-1c-debris",
        "lat": -80.7160814626863,
        "lon": 173.07005436147554,
        "alt_km": 856.6600551963302,
        "timestamp": "2025-12-02T06:27:53.287848+00:00",
        "meta_object_name": "FENGYUN 1C DEB",
        "meta_object_id": "1999-025TA",
        "meta_epoch": "2025-12-01T07:13:56.265888",
        "meta_mean_motion": 14.13802835,
        "meta_eccentricity": 0.00927604,
        "meta_inclination": 99.2702,
        "meta_ra_of_asc_node": 84.4587,
        "meta_arg_of_pericenter": 179.9923,
        "meta_mean_anomaly": 205.094,
        "meta_ephemeris_type": 0,
        "meta_classification_type": "U",
        "meta_norad_cat_id": 30145,
        "meta_element_set_no": 999,
        "meta_rev_at_epoch": 96034,
        "meta_bstar": 0.0037153348,
        "meta_mean_motion_dot": 7.287e-05,
        "meta_mean_motion_ddot": 0,
        "tle_line1": "1 30145U 99025TA  25335.30134567  .00007287  00000+0  37153-2 0  9999",
        "tle_line2": "2 30145  99.2702  84.4587 0092760 179.9923 205.0940 14.13802835960341"
      },
      "geometry": {
        "type": "Point",
        "coordinates": [
          173.07005436147554,
          -80.7160814626863
        ]
      }
    },
    {
      "type": "Feature",
      "properties": {
        "norad_id": 30146,
        "name": "FENGYUN 1C DEB",
        "group": "fengyun-1c-debris",
        "lat": -8.257168600695923,
        "lon": -43.79990215719147,
        "alt_km": 838.4017588314891,
        "timestamp": "2025-12-02T06:27:53.287858+00:00",
        "meta_object_name": "FENGYUN 1C DEB",
        "meta_object_id": "1999-025TB",
        "meta_epoch": "2025-12-01T19:44:10.206240",
        "meta_mean_motion": 13.86568367,
        "meta_eccentricity": 0.0178725,
        "meta_inclination": 98.02,
        "meta_ra_of_asc_node": 136.9888,
        "meta_arg_of_pericenter": 153.1118,
        "meta_mean_anomaly": 323.7534,
        "meta_ephemeris_type": 0,
        "meta_classification_type": "U",
        "meta_norad_cat_id": 30146,
        "meta_element_set_no": 999,
        "meta_rev_at_epoch": 95266,
        "meta_bstar": 0.00076687,
        "meta_mean_motion_dot": 9.77e-06,
        "meta_mean_motion_ddot": 0,
        "tle_line1": "1 30146U 99025TB  25335.82234035  .00000977  00000+0  76687-3 0  9993",
        "tle_line2": "2 30146  98.0200 136.9888 0178725 153.1118 323.7534 13.86568367952666"
      },
      "geometry": {
        "type": "Point",
        "coordinates": [
          -43.79990215719147,
          -8.257168600695923
        ]
      }
    },
    {
      "type": "Feature",
      "properties": {
        "norad_id": 30148,
        "name": "FENGYUN 1C DEB",
        "group": "fengyun-1c-debris",
        "lat": 40.674132634750556,
        "lon": -46.35741409019125,
        "alt_km": 922.4641692843634,
        "timestamp": "2025-12-02T06:27:53.287868+00:00",
        "meta_object_name": "FENGYUN 1C DEB",
        "meta_object_id": "1999-025TD",
        "meta_epoch": "2025-12-01T16:01:02.457120",
        "meta_mean_motion": 13.88446113,
        "meta_eccentricity": 0.0134763,
        "meta_inclination": 99.5452,
        "meta_ra_of_asc_node": 124.7131,
        "meta_arg_of_pericenter": 226.0889,
        "meta_mean_anomaly": 146.6748,
        "meta_ephemeris_type": 0,
        "meta_classification_type": "U",
        "meta_norad_cat_id": 30148,
        "meta_element_set_no": 999,
        "meta_rev_at_epoch": 95363,
        "meta_bstar": 0.00094711751,
        "meta_mean_motion_dot": 1.175e-05,
        "meta_mean_motion_ddot": 0,
        "tle_line1": "1 30148U 99025TD  25335.66738955  .00001175  00000+0  94712-3 0  9997",
        "tle_line2": "2 30148  99.5452 124.7131 0134763 226.0889 146.6748 13.88446113953631"
      },
      "geometry": {
        "type": "Point",
        "coordinates": [
          -46.35741409019125,
          40.674132634750556
        ]
      }
    },
    {
      "type": "Feature",
      "properties": {
        "norad_id": 30150,
        "name": "FENGYUN 1C DEB",
        "group": "fengyun-1c-debris",
        "lat": -11.995217432592113,
        "lon": 114.58841195675139,
        "alt_km": 841.8747538244797,
        "timestamp": "2025-12-02T06:27:53.287878+00:00",
        "meta_object_name": "FENGYUN 1C DEB",
        "meta_object_id": "1999-025TF",
        "meta_epoch": "2025-12-01T20:45:21.668832",
        "meta_mean_motion": 13.86573507,
        "meta_eccentricity": 0.014676,
        "meta_inclination": 98.9941,
        "meta_ra_of_asc_node": 112.2711,
        "meta_arg_of_pericenter": 5.6778,
        "meta_mean_anomaly": 124.5693,
        "meta_ephemeris_type": 0,
        "meta_classification_type": "U",
        "meta_norad_cat_id": 30150,
        "meta_element_set_no": 999,
        "meta_rev_at_epoch": 95307,
        "meta_bstar": 0.00051548,
        "meta_mean_motion_dot": 6.09e-06,
        "meta_mean_motion_ddot": 0,
        "tle_line1": "1 30150U 99025TF  25335.86483413  .00000609  00000+0  51548-3 0  9999",
        "tle_line2": "2 30150  98.9941 112.2711 0146760   5.6778 124.5693 13.86573507953072"
      },
      "geometry": {
        "type": "Point",
        "coordinates": [
          114.58841195675139,
          -11.995217432592113
        ]
      }
    },
    {
      "type": "Feature",
      "properties": {
        "norad_id": 30151,
        "name": "FENGYUN 1C DEB",
        "group": "fengyun-1c-debris",
        "lat": -47.78702471389354,
        "lon": 154.47092573199532,
        "alt_km": 929.2372423699107,
        "timestamp": "2025-12-02T06:27:53.287889+00:00",
        "meta_object_name": "FENGYUN 1C DEB",
        "meta_object_id": "1999-025TG",
        "meta_epoch": "2025-12-01T12:36:31.773600",
        "meta_mean_motion": 13.84445257,
        "meta_eccentricity": 0.01632945,
        "meta_inclination": 99.0637,
        "meta_ra_of_asc_node": 343.8871,
        "meta_arg_of_pericenter": 309.0357,
        "meta_mean_anomaly": 175.2085,
        "meta_ephemeris_type": 0,
        "meta_classification_type": "U",
        "meta_norad_cat_id": 30151,
        "meta_element_set_no": 999,
        "meta_rev_at_epoch": 95090,
        "meta_bstar": 0.00081762981,
        "meta_mean_motion_dot": 9.72e-06,
        "meta_mean_motion_ddot": 0,
        "tle_line1": "1 30151U 99025TG  25335.52536775  .00000972  00000+0  81763-3 0  9998",
        "tle_line2": "2 30151  99.0637 343.8871 0163294 309.0357 175.2085 13.84445257950906"
      },
      "geometry": {
        "type": "Point",
        "coordinates": [
          154.47092573199532,
          -47.78702471389354
        ]
      }
    }
  ]
}